CUTE-1 (CO-55)          
1 27844U 03031E   26163.96278740  .00000273  00000+0  13691-3 0  9997
2 27844  98.6734 172.5745 0009215 190.4426 169.6563 14.24333311191077
CUBESAT XI-IV (CO-57)   
1 27848U 03031J   26164.30054322  .00000231  00000+0  12072-3 0  9994
2 27848  98.6768 172.6242 0008786 208.9475 151.1218 14.23618930190829
CUBESAT XI-V            
1 28895U 05043F   26164.18991645  .00001326  00000+0  21634-3 0  9996
2 28895  98.2979 319.7278 0013407 213.9462 146.0888 14.72621633101166
CUTE-1.7+APD II (CO-65) 
1 32785U 08021C   26164.20500221  .00005360  00000+0  33898-3 0  9994
2 32785  97.8270 145.5406 0010244  51.3839 308.8305 15.09418945984593
CANX-2                  
1 32790U 08021H   26164.16772313  .00004405  00000+0  30972-3 0  9997
2 32790  97.8620 143.8667 0011552  62.4846 297.7552 15.05585499984205
SEEDS II (CO-66)        
1 32791U 08021J   26163.95721681  .00018823  00000+0  59952-3 0  9994
2 32791  97.7514 161.6531 0001704  17.5386 342.5913 15.32612695986642
SWISSCUBE               
1 35932U 09051B   26164.20044227  .00000907  00000+0  18888-3 0  9998
2 35932  98.4039  72.0192 0005729 217.2214 142.8591 14.62474657888572
BEESAT-1                
1 35933U 09051C   26164.27625783  .00000762  00000+0  16281-3 0  9992
2 35933  98.3969  71.7400 0004035 232.2675 127.8160 14.61714735888612
ITUPSAT1                
1 35935U 09051E   26164.26372436  .00000683  00000+0  15114-3 0  9993
2 35935  98.4054  70.9235 0006147 248.6693 111.3850 14.60435247888165
TISAT 1                 
1 36799U 10035E   26163.80523880  .00022701  00000+0  74651-3 0  9992
2 36799  98.0703 109.9656 0000769 172.9333 187.1918 15.31550354867030
AEROCUBE 4.5A           
1 38767U 12048K   26164.02276107  .00388913  65351-4  10979-2 0  9994
2 38767  64.6254  42.1032 0019678 219.8906 140.0810 15.92848631371998
STRAND-1                
1 39090U 13009E   26164.22680756  .00000263  00000+0  10267-3 0  9998
2 39090  98.3921 344.5588 0007559 238.7120 121.3328 14.37161166696491
BRITE-AUSTRIA           
1 39091U 13009F   26164.02901770  .00000161  00000+0  69463-4 0  9999
2 39091  98.3993 343.5677 0009018 250.5098 109.5115 14.36540568696451
NEE-01 PEGASO           
1 39151U 13018B   26163.91117881  .00002140  00000+0  20813-3 0  9999
2 39151  98.1215 307.9206 0012733 172.7628 187.3777 14.93641773710062
POPACS 2                
1 39269U 13055E   26164.21730338  .00013131  00000+0  22289-3 0  9993
2 39269  80.9897 148.7359 0416972 206.5318 151.4016 14.91116814662629
POPACS 3                
1 39270U 13055F   26164.20265296  .00010153  00000+0  23865-3 0  9992
2 39270  81.0023 233.5065 0552510  82.1223 284.2290 14.56054895637973
ZACUBE-1 (TSHEPISOSAT)  
1 39417U 13066B   26164.14131243  .00003691  00000+0  28793-3 0  9998
2 39417  97.8084 126.4562 0040377 261.8292  97.8350 15.01166542680129
WNISAT-1                
1 39423U 13066H   26164.29940477  .00000743  00000+0  14416-3 0  9990
2 39423  97.7196 313.7317 0161810 243.9289 114.5180 14.58056344666166
TRITON-1                
1 39427U 13066M   26164.24372403  .00002381  00000+0  28944-3 0  9998
2 39427  97.8252  74.1405 0088358 246.9737 112.2139 14.81694453673506
GOMX-1                  
1 39430U 13066Q   26164.30462626  .00001784  00000+0  27199-3 0  9993
2 39430  97.6489   5.0132 0130204  89.8856 271.7270 14.69446026669345
CUBEBUG-2 (LO-74)       
1 39440U 13066AA  26163.84301877  .00004525  00000+0  41877-3 0  9997
2 39440  97.8900 112.8027 0058755  43.0424 317.5369 14.93728016676344
NEE-02 KRYSAOR          
1 39441U 13066AB  26164.30532468  .00002401  00000+0  26597-3 0  9995
2 39441  97.8891 103.5477 0067725  82.6389 278.2517 14.86602186675625
FUNCUBE-1 (AO-73)       
1 39444U 13066AE  26164.14541675  .00007185  00000+0  44671-3 0  9997
2 39444  97.8264 135.5066 0035316 215.1980 144.6915 15.09441691679059
UWE-3                   
1 39446U 13066AG  26164.13836006  .00004587  00000+0  39472-3 0  9999
2 39446  97.8688 120.1848 0048217 334.6375  25.2479 14.96993972676974
BRITE-CA1 (TORONTO)     
1 40020U 14033L   26163.89316560  .00000640  00000+0  10400-3 0  9990
2 40020  97.9733 292.9004 0077304 291.0150  68.2801 14.72671132641584
DUCHIFAT-1              
1 40021U 14033M   26164.11936294  .00104096  00000+0  11013-2 0  9999
2 40021  98.0477 222.7109 0003769 123.4886 236.6731 15.63811207655114
NANOSATC-BR1            
1 40024U 14033Q   26164.02358310  .00017945  00000+0  59503-3 0  9992
2 40024  98.0725 196.0424 0004015 173.7192 186.4098 15.31330706653345
QB50P1                  
1 40025U 14033R   26164.26154085  .00008174  00000+0  40304-3 0  9995
2 40025  98.0959 175.1320 0007473 230.7875 129.2695 15.18203593652436
QB50P2                  
1 40032U 14033Y   26163.93944525  .00007602  00000+0  40947-3 0  9990
2 40032  98.0745 160.5550 0007549 177.2397 182.8877 15.15107254652024
PERSEUS-M2              
1 40037U 14033AD  26164.24936339  .00001019  00000+0  97464-4 0  9997
2 40037  97.9956 114.7097 0011164 319.1266  40.9116 14.95497512650190
